{
  "norad_id": 62562,
  "name": "STARLINK-11530 [DTC]",
  "history": [
    {
      "epoch": "2026-03-28T20:43:30.956736Z",
      "apogee_km": 357.31578321694633,
      "perigee_km": 355.04537538826025,
      "latitude_deg": -2.027657651376532e-05,
      "longitude_deg": -112.45050035393764,
      "height_km": 356.14552578844257,
      "semi_major_axis_km": 6734.317579302603,
      "eccentricity": 0.00016857,
      "inclination_deg": 43.0002,
      "raan_deg": 24.7064,
      "arg_perigee_deg": 260.2472,
      "mean_anomaly_deg": 99.8205,
      "mean_motion_rev_day": 15.70950035
    }
  ]
}